[{"OBJECT_NAME":"RISING 2","OBJECT_ID":"2014-029D","EPOCH":"2026-03-09T22:49:58.395648","MEAN_MOTION":14.97431818,"ECCENTRICITY":0.00015683,"INCLINATION":97.6622,"RA_OF_ASC_NODE":139.362,"ARG_OF_PERICENTER":264.4485,"MEAN_ANOMALY":95.6558,"EPHEMERIS_TYPE":0,"CLASSIFICATION_TYPE":"U","NORAD_CAT_ID":39769,"ELEMENT_SET_NO":999,"REV_AT_EPOCH":63869,"BSTAR":0.00068568934,"MEAN_MOTION_DOT":7.926e-5,"MEAN_MOTION_DDOT":0},{"OBJECT_NAME":"COSMOS 2251 DEB","OBJECT_ID":"1993-036JZ","EPOCH":"2026-03-09T18:09:16.017696","MEAN_MOTION":14.82070452,"ECCENTRICITY":0.00681609,"INCLINATION":74.0283,"RA_OF_ASC_NODE":326.4344,"ARG_OF_PERICENTER":22.7966,"MEAN_ANOMALY":32.3865,"EPHEMERIS_TYPE":0,"CLASSIFICATION_TYPE":"U","NORAD_CAT_ID":34062,"ELEMENT_SET_NO":999,"REV_AT_EPOCH":89883,"BSTAR":0.001971192,"MEAN_MOTION_DOT":0.00016317,"MEAN_MOTION_DDOT":0}]
